ORBCOMM FM33 [-]        
1 25983U 99065D   23307.71269316  .00002056  00000+0  73520-3 0  9998
2 25983  45.0292 283.6254 0010346 323.2122 208.1981 14.36927437250901
ORBCOMM FM34 [-]        
1 25986U 99065G   23307.88580823  .00001596  00000+0  61136-3 0  9996
2 25986  45.0412   7.6682 0005475 256.4924 103.5314 14.34436276249923
ORBCOMM FM38 [-]        
1 33060U 08031A   23307.26680681  .00003092  00000+0  47026-3 0  9991
2 33060  48.4410 244.3366 0005512  21.5715 338.5430 14.76319437827151
ORBCOMM FM41 [-]        
1 33061U 08031B   23307.58215486  .00003515  00000+0  53342-3 0  9992
2 33061  48.4446 249.0411 0004738   7.9822 162.2536 14.76084698827146
ORBCOMM FM29 [-]        
1 33062U 08031C   23307.28464733  .00003235  00000+0  49456-3 0  9991
2 33062  48.4398 258.4354 0006681   6.0033 147.1811 14.75965296826571
ORBCOMM FM39 [-]        
1 33063U 08031D   23307.91618103  .00002990  00000+0  46844-3 0  9999
2 33063  48.4414 274.6549 0007792 345.5031  14.5658 14.75112723826384
