<?xml version="1.0" encoding="UTF-8"?>
<ndm xmlns:xsi="http://www.w3.org/2001/XMLSchema-instance" xsi:noNamespaceSchemaLocation="https://sanaregistry.org/r/ndmxml_unqualified/ndmxml-2.0.0-master-2.0.xsd">
<omm id="CCSDS_OMM_VERS" version="2.0">
<header><CREATION_DATE/><ORIGINATOR/></header><body><segment><metadata><OBJECT_NAME>ORBCOMM FM33 [-]</OBJECT_NAME><OBJECT_ID>1999-065D</OBJECT_ID><CENTER_NAME>EARTH</CENTER_NAME><REF_FRAME>TEME</REF_FRAME><TIME_SYSTEM>UTC</TIME_SYSTEM><MEAN_ELEMENT_THEORY>SGP4</MEAN_ELEMENT_THEORY></metadata><data><meanElements><EPOCH>2023-11-03T17:06:16.689024</EPOCH><MEAN_MOTION>14.36927437</MEAN_MOTION><ECCENTRICITY>.0010346</ECCENTRICITY><INCLINATION>45.0292</INCLINATION><RA_OF_ASC_NODE>283.6254</RA_OF_ASC_NODE><ARG_OF_PERICENTER>323.2122</ARG_OF_PERICENTER><MEAN_ANOMALY>208.1981</MEAN_ANOMALY></meanElements><tleParameters><EPHEMERIS_TYPE>0</EPHEMERIS_TYPE><CLASSIFICATION_TYPE>U</CLASSIFICATION_TYPE><NORAD_CAT_ID>25983</NORAD_CAT_ID><ELEMENT_SET_NO>999</ELEMENT_SET_NO><REV_AT_EPOCH>25090</REV_AT_EPOCH><BSTAR>.7352E-3</BSTAR><MEAN_MOTION_DOT>.2056E-4</MEAN_MOTION_DOT><MEAN_MOTION_DDOT>0</MEAN_MOTION_DDOT></tleParameters></data></segment></body></omm>
<omm id="CCSDS_OMM_VERS" version="2.0">
<header><CREATION_DATE/><ORIGINATOR/></header><body><segment><metadata><OBJECT_NAME>ORBCOMM FM34 [-]</OBJECT_NAME><OBJECT_ID>1999-065G</OBJECT_ID><CENTER_NAME>EARTH</CENTER_NAME><REF_FRAME>TEME</REF_FRAME><TIME_SYSTEM>UTC</TIME_SYSTEM><MEAN_ELEMENT_THEORY>SGP4</MEAN_ELEMENT_THEORY></metadata><data><meanElements><EPOCH>2023-11-03T21:15:33.831072</EPOCH><MEAN_MOTION>14.34436276</MEAN_MOTION><ECCENTRICITY>.0005475</ECCENTRICITY><INCLINATION>45.0412</INCLINATION><RA_OF_ASC_NODE>7.6682</RA_OF_ASC_NODE><ARG_OF_PERICENTER>256.4924</ARG_OF_PERICENTER><MEAN_ANOMALY>103.5314</MEAN_ANOMALY></meanElements><tleParameters><EPHEMERIS_TYPE>0</EPHEMERIS_TYPE><CLASSIFICATION_TYPE>U</CLASSIFICATION_TYPE><NORAD_CAT_ID>25986</NORAD_CAT_ID><ELEMENT_SET_NO>999</ELEMENT_SET_NO><REV_AT_EPOCH>24992</REV_AT_EPOCH><BSTAR>.61136E-3</BSTAR><MEAN_MOTION_DOT>.1596E-4</MEAN_MOTION_DOT><MEAN_MOTION_DDOT>0</MEAN_MOTION_DDOT></tleParameters></data></segment></body></omm>
<omm id="CCSDS_OMM_VERS" version="2.0">
<header><CREATION_DATE/><ORIGINATOR/></header><body><segment><metadata><OBJECT_NAME>ORBCOMM FM38 [-]</OBJECT_NAME><OBJECT_ID>2008-031A</OBJECT_ID><CENTER_NAME>EARTH</CENTER_NAME><REF_FRAME>TEME</REF_FRAME><TIME_SYSTEM>UTC</TIME_SYSTEM><MEAN_ELEMENT_THEORY>SGP4</MEAN_ELEMENT_THEORY></metadata><data><meanElements><EPOCH>2023-11-03T06:24:12.108384</EPOCH><MEAN_MOTION>14.76319437</MEAN_MOTION><ECCENTRICITY>.0005512</ECCENTRICITY><INCLINATION>48.4410</INCLINATION><RA_OF_ASC_NODE>244.3366</RA_OF_ASC_NODE><ARG_OF_PERICENTER>21.5715</ARG_OF_PERICENTER><MEAN_ANOMALY>338.5430</MEAN_ANOMALY></meanElements><tleParameters><EPHEMERIS_TYPE>0</EPHEMERIS_TYPE><CLASSIFICATION_TYPE>U</CLASSIFICATION_TYPE><NORAD_CAT_ID>33060</NORAD_CAT_ID><ELEMENT_SET_NO>999</ELEMENT_SET_NO><REV_AT_EPOCH>82715</REV_AT_EPOCH><BSTAR>.47026E-3</BSTAR><MEAN_MOTION_DOT>.3092E-4</MEAN_MOTION_DOT><MEAN_MOTION_DDOT>0</MEAN_MOTION_DDOT></tleParameters></data></segment></body></omm>
<omm id="CCSDS_OMM_VERS" version="2.0">
<header><CREATION_DATE/><ORIGINATOR/></header><body><segment><metadata><OBJECT_NAME>ORBCOMM FM41 [-]</OBJECT_NAME><OBJECT_ID>2008-031B</OBJECT_ID><CENTER_NAME>EARTH</CENTER_NAME><REF_FRAME>TEME</REF_FRAME><TIME_SYSTEM>UTC</TIME_SYSTEM><MEAN_ELEMENT_THEORY>SGP4</MEAN_ELEMENT_THEORY></metadata><data><meanElements><EPOCH>2023-11-03T13:58:18.179904</EPOCH><MEAN_MOTION>14.76084698</MEAN_MOTION><ECCENTRICITY>.0004738</ECCENTRICITY><INCLINATION>48.4446</INCLINATION><RA_OF_ASC_NODE>249.0411</RA_OF_ASC_NODE><ARG_OF_PERICENTER>7.9822</ARG_OF_PERICENTER><MEAN_ANOMALY>162.2536</MEAN_ANOMALY></meanElements><tleParameters><EPHEMERIS_TYPE>0</EPHEMERIS_TYPE><CLASSIFICATION_TYPE>U</CLASSIFICATION_TYPE><NORAD_CAT_ID>33061</NORAD_CAT_ID><ELEMENT_SET_NO>999</ELEMENT_SET_NO><REV_AT_EPOCH>82714</REV_AT_EPOCH><BSTAR>.53342E-3</BSTAR><MEAN_MOTION_DOT>.3515E-4</MEAN_MOTION_DOT><MEAN_MOTION_DDOT>0</MEAN_MOTION_DDOT></tleParameters></data></segment></body></omm>
<omm id="CCSDS_OMM_VERS" version="2.0">
<header><CREATION_DATE/><ORIGINATOR/></header><body><segment><metadata><OBJECT_NAME>ORBCOMM FM29 [-]</OBJECT_NAME><OBJECT_ID>2008-031C</OBJECT_ID><CENTER_NAME>EARTH</CENTER_NAME><REF_FRAME>TEME</REF_FRAME><TIME_SYSTEM>UTC</TIME_SYSTEM><MEAN_ELEMENT_THEORY>SGP4</MEAN_ELEMENT_THEORY></metadata><data><meanElements><EPOCH>2023-11-03T06:49:53.529312</EPOCH><MEAN_MOTION>14.75965296</MEAN_MOTION><ECCENTRICITY>.0006681</ECCENTRICITY><INCLINATION>48.4398</INCLINATION><RA_OF_ASC_NODE>258.4354</RA_OF_ASC_NODE><ARG_OF_PERICENTER>6.0033</ARG_OF_PERICENTER><MEAN_ANOMALY>147.1811</MEAN_ANOMALY></meanElements><tleParameters><EPHEMERIS_TYPE>0</EPHEMERIS_TYPE><CLASSIFICATION_TYPE>U</CLASSIFICATION_TYPE><NORAD_CAT_ID>33062</NORAD_CAT_ID><ELEMENT_SET_NO>999</ELEMENT_SET_NO><REV_AT_EPOCH>82657</REV_AT_EPOCH><BSTAR>.49456E-3</BSTAR><MEAN_MOTION_DOT>.3235E-4</MEAN_MOTION_DOT><MEAN_MOTION_DDOT>0</MEAN_MOTION_DDOT></tleParameters></data></segment></body></omm>
<omm id="CCSDS_OMM_VERS" version="2.0">
<header><CREATION_DATE/><ORIGINATOR/></header><body><segment><metadata><OBJECT_NAME>ORBCOMM FM39 [-]</OBJECT_NAME><OBJECT_ID>2008-031D</OBJECT_ID><CENTER_NAME>EARTH</CENTER_NAME><REF_FRAME>TEME</REF_FRAME><TIME_SYSTEM>UTC</TIME_SYSTEM><MEAN_ELEMENT_THEORY>SGP4</MEAN_ELEMENT_THEORY></metadata><data><meanElements><EPOCH>2023-11-03T21:59:18.040992</EPOCH><MEAN_MOTION>14.75112723</MEAN_MOTION><ECCENTRICITY>.0007792</ECCENTRICITY><INCLINATION>48.4414</INCLINATION><RA_OF_ASC_NODE>274.6549</RA_OF_ASC_NODE><ARG_OF_PERICENTER>345.5031</ARG_OF_PERICENTER><MEAN_ANOMALY>14.5658</MEAN_ANOMALY></meanElements><tleParameters><EPHEMERIS_TYPE>0</EPHEMERIS_TYPE><CLASSIFICATION_TYPE>U</CLASSIFICATION_TYPE><NORAD_CAT_ID>33063</NORAD_CAT_ID><ELEMENT_SET_NO>999</ELEMENT_SET_NO><REV_AT_EPOCH>82638</REV_AT_EPOCH><BSTAR>.46844E-3</BSTAR><MEAN_MOTION_DOT>.299E-4</MEAN_MOTION_DOT><MEAN_MOTION_DDOT>0</MEAN_MOTION_DDOT></tleParameters></data></segment></body></omm>

</ndm>
